NORAD_CAT_ID,OBJECT_NAME,OBJECT_TYPE,EPOCH,MEAN_MOTION,ECCENTRICITY,INCLINATION,RA_OF_ASC_NODE,ARG_OF_PERICENTER,MEAN_ANOMALY,BSTAR,MEAN_MOTION_DOT,MEAN_MOTION_DDOT,TLE_LINE0,TLE_LINE1,TLE_LINE2,SEMIMAJOR_AXIS,PERIOD,APOGEE,PERIGEE,DECAYED
53930.0,STARLINK-5010,PAYLOAD,2023-11-11 12:34:19,15.08843734,0.0001382,53.2158,155.9145,87.8082,272.3069,-7.0532e-05,-1.41e-05,0.0,0 STARLINK-5010,1 53930U 22119AW  23315.52384057 -.00001410  00000-0 -70532-4 0  9992,2 53930  53.2158 155.9145 0001382  87.8082 272.3069 15.08843734 63352,6917.869,95.437,540.69,538.778,0.0
53930.0,STARLINK-5010,PAYLOAD,2023-11-11 20:31:15,15.08847407,0.0001335,53.2159,154.4291,101.304,258.8102,9.0141e-06,-1.44e-06,0.0,0 STARLINK-5010,1 53930U 22119AW  23315.85503938 -.00000144  00000-0  90141-5 0  9990,2 53930  53.2159 154.4291 0001335 101.3040 258.8102 15.08847407 63823,6917.858,95.437,540.646,538.799,0.0
53930.0,STARLINK-5010,PAYLOAD,2023-11-12 06:03:34,15.08841903,0.0001428,53.2159,152.6445,80.4723,279.6431,-3.145e-05,-7.88e-06,0.0,0 STARLINK-5010,1 53930U 22119AW  23316.25247730 -.00000788  00000-0 -31450-4 0  9992,2 53930  53.2159 152.6445 0001428  80.4723 279.6431 15.08841903 63889,6917.875,95.437,540.727,538.752,0.0
53930.0,STARLINK-5010,PAYLOAD,2023-11-12 18:46:39,15.08848424,0.0001339,53.2154,150.2658,91.8507,268.2639,0.00016603,2.356e-05,0.0,0 STARLINK-5010,1 53930U 22119AW  23316.78239740  .00002356  00000-0  16603-3 0  9995,2 53930  53.2154 150.2658 0001339  91.8507 268.2639 15.08848424 63543,6917.855,95.437,540.646,538.793,0.0
53930.0,STARLINK-5010,PAYLOAD,2023-11-12 21:57:25,15.08848732,0.0001346,53.2153,149.6712,92.3221,267.7925,0.000191,2.754e-05,0.0,0 STARLINK-5010,1 53930U 22119AW  23316.91487686  .00002754  00000-0  19100-3 0  9991,2 53930  53.2153 149.6712 0001346  92.3221 267.7925 15.08848732 63984,6917.854,95.437,540.65,538.788,0.0
53930.0,STARLINK-5010,PAYLOAD,2023-11-13 12:15:53,15.08842437,0.0001331,53.215,146.9953,101.566,258.5481,0.00028117,4.19e-05,0.0,0 STARLINK-5010,1 53930U 22119AW  23317.51103910  .00004190  00000-0  28117-3 0  9997,2 53930  53.2150 146.9953 0001331 101.5660 258.5481 15.08842437 63657,6917.873,95.437,540.659,538.817,0.0
53930.0,STARLINK-5010,PAYLOAD,2023-11-14 05:45:08,15.08843586,0.0001396,53.215,143.7241,88.3417,271.7735,8.4338e-05,1.055e-05,0.0,0 STARLINK-5010,1 53930U 22119AW  23318.23967682  .00001055  00000-0  84338-4 0  9996,2 53930  53.2150 143.7241 0001396  88.3417 271.7735 15.08843586 64189,6917.869,95.437,540.7,538.769,0.0
53930.0,STARLINK-5010,PAYLOAD,2023-11-14 18:28:13,15.08840368,0.0001497,53.2161,141.3462,87.0578,273.0586,1.2407e-05,-9.1e-07,0.0,0 STARLINK-5010,1 53930U 22119AW  23318.76959982 -.00000091  00000-0  12407-4 0  9996,2 53930  53.2161 141.3462 0001497  87.0578 273.0586 15.08840368 63842,6917.879,95.438,540.78,538.709,0.0
53930.0,STARLINK-5010,PAYLOAD,2023-11-14 21:38:59,15.08841327,0.000154,53.2162,140.7517,86.5034,273.6134,2.8419e-05,1.64e-06,0.0,0 STARLINK-5010,1 53930U 22119AW  23318.90207932  .00000164  00000-0  28419-4 0  9993,2 53930  53.2162 140.7517 0001540  86.5034 273.6134 15.08841327 64287,6917.876,95.437,540.807,538.676,0.0
53930.0,STARLINK-5010,PAYLOAD,2023-11-15 21:29:46,15.08838564,0.0001568,53.2138,136.2903,87.8242,272.293,8.4696e-05,1.06e-05,0.0,0 STARLINK-5010,1 53930U 22119AW  23319.89568252  .00001060  00000-0  84696-4 0  9992,2 53930  53.2138 136.2903 0001568  87.8242 272.2930 15.08838564 64439,6917.885,95.438,540.835,538.665,0.0
53930.0,STARLINK-5010,PAYLOAD,2023-11-16 21:20:33,15.0884364,0.0001467,53.2166,131.8282,92.6123,267.5037,0.00012609,1.72e-05,0.0,0 STARLINK-5010,1 53930U 22119AW  23320.88927785  .00001720  00000-0  12609-3 0  9990,2 53930  53.2166 131.8282 0001467  92.6123 267.5037 15.08843640 64583,6917.869,95.437,540.749,538.719,0.0
53930.0,STARLINK-5010,PAYLOAD,2023-11-17 18:00:34,15.08838207,0.0001408,53.2138,127.9622,91.584,268.5314,5.6351e-05,6.09e-06,0.0,0 STARLINK-5010,1 53930U 22119AW  23321.75040363  .00000609  00000-0  56351-4 0  9993,2 53930  53.2138 127.9622 0001408  91.5840 268.5314 15.08838207 64295,6917.886,95.438,540.725,538.777,0.0
53930.0,STARLINK-5010,PAYLOAD,2023-11-17 21:11:21,15.08836387,0.0001412,53.216,127.3676,91.0651,269.0503,3.5917e-05,2.84e-06,0.0,0 STARLINK-5010,1 53930U 22119AW  23321.88288503  .00000284  00000-0  35917-4 0  9991,2 53930  53.2160 127.3676 0001412  91.0651 269.0503 15.08836387 64735,6917.891,95.438,540.733,538.78,0.0
53930.0,STARLINK-5010,PAYLOAD,2023-11-18 11:29:49,15.08840019,0.0001489,53.2179,124.6913,91.4622,268.6541,2.5447e-05,1.17e-06,0.0,0 STARLINK-5010,1 53930U 22119AW  23322.47904418  .00000117  00000-0  25447-4 0  9999,2 53930  53.2179 124.6913 0001489  91.4622 268.6541 15.08840019 64829,6917.88,95.438,540.775,538.715,0.0
53930.0,STARLINK-5010,PAYLOAD,2023-11-18 17:51:21,15.08842405,0.0001477,53.217,123.502,91.1079,269.0083,4.4654e-05,4.23e-06,0.0,0 STARLINK-5010,1 53930U 22119AW  23322.74400177  .00000423  00000-0  44654-4 0  9993,2 53930  53.2170 123.5020 0001477  91.1079 269.0083 15.08842405 64868,6917.873,95.437,540.76,538.716,0.0
53930.0,STARLINK-5010,PAYLOAD,2023-11-19 03:23:40,15.08838024,0.0001409,53.2164,121.7176,88.8224,271.2929,2.7614e-05,1.52e-06,0.0,0 STARLINK-5010,1 53930U 22119AW  23323.14144447  .00000152  00000-0  27614-4 0  9999,2 53930  53.2164 121.7176 0001409  88.8224 271.2929 15.08838024 64500,6917.886,95.438,540.726,538.777,0.0
53930.0,STARLINK-5010,PAYLOAD,2023-11-19 11:20:36,15.08835837,0.0001408,53.2159,120.2315,91.564,268.5513,7.5026e-05,9.06e-06,0.0,0 STARLINK-5010,1 53930U 22119AW  23323.47264597  .00000906  00000-0  75026-4 0  9991,2 53930  53.2159 120.2315 0001408  91.5640 268.5513 15.08835837 64973,6917.893,95.438,540.732,538.784,0.0
53930.0,STARLINK-5010,PAYLOAD,2023-11-19 17:42:09,15.0883806,0.0001388,53.2176,119.0424,90.2147,269.9004,7.9653e-05,9.8e-06,0.0,0 STARLINK-5010,1 53930U 22119AW  23323.73760514  .00000980  00000-0  79653-4 0  9992,2 53930  53.2176 119.0424 0001388  90.2147 269.9004 15.08838060 65011,6917.886,95.438,540.712,538.791,0.0
53930.0,STARLINK-5010,PAYLOAD,2023-11-20 14:22:09,15.08840121,0.0001353,53.2182,115.1776,92.3506,267.7641,6.3439e-05,7.22e-06,0.0,0 STARLINK-5010,1 53930U 22119AW  23324.59872601  .00000722  00000-0  63439-4 0  9997,2 53930  53.2182 115.1776 0001353  92.3506 267.7641 15.08840121 65147,6917.88,95.438,540.681,538.809,0.0
53930.0,STARLINK-5010,PAYLOAD,2023-11-20 19:08:19,15.08843127,0.000136,53.2176,114.2852,91.7285,268.3863,8.5679e-05,1.076e-05,0.0,0 STARLINK-5010,1 53930U 22119AW  23324.79744346  .00001076  00000-0  85679-4 0  9996,2 53930  53.2176 114.2852 0001360  91.7285 268.3863 15.08843127 64758,6917.871,95.437,540.677,538.795,0.0
53930.0,STARLINK-5010,PAYLOAD,2023-11-21 03:05:17,15.08809752,0.0001687,53.2182,112.7989,85.7139,274.4046,-0.00017432,-3.059e-05,0.0,0 STARLINK-5010,1 53930U 22119AW  23325.12867644 -.00003059  00000-0 -17432-3 0  9997,2 53930  53.2182 112.7989 0001687  85.7139 274.4046 15.08809752 64805,6917.973,95.439,541.005,538.671,0.0
53930.0,STARLINK-5010,PAYLOAD,2023-11-21 11:02:14,15.08803074,0.000187,53.2175,111.3142,88.719,271.4016,-0.00020879,-3.606e-05,0.0,0 STARLINK-5010,1 53930U 22119AW  23325.45988950 -.00003606  00000-0 -20879-3 0  9994,2 53930  53.2175 111.3142 0001870  88.7190 271.4016 15.08803074 64857,6917.993,95.44,541.152,538.565,0.0
53930.0,STARLINK-5010,PAYLOAD,2023-11-21 15:48:21,15.08836992,0.0001474,53.2177,110.4191,86.5108,273.6052,8.0222e-05,9.89e-06,0.0,0 STARLINK-5010,1 53930U 22119AW  23325.65858164  .00000989  00000-0  80222-4 0  9997,2 53930  53.2177 110.4191 0001474  86.5108 273.6052 15.08836992 64880,6917.89,95.438,540.774,538.735,0.0
53930.0,STARLINK-5010,PAYLOAD,2023-11-22 14:03:43,15.08859723,0.0001346,53.2174,106.2554,70.7925,289.3213,0.0002874,4.291e-05,0.0,0 STARLINK-5010,1 53930U 22119AW  23326.58592190  .00004291  00000-0  28740-3 0  9990,2 53930  53.2174 106.2554 0001346  70.7925 289.3213 15.08859723 65446,6917.82,95.436,540.616,538.754,0.0
53930.0,STARLINK-5010,PAYLOAD,2023-11-22 18:49:53,15.0887568,0.0001425,53.2161,105.3626,77.1169,282.9982,0.00068808,0.0001069,0.0,0 STARLINK-5010,1 53930U 22119AW  23326.78464227  .00010690  00000-0  68808-3 0  9990,2 53930  53.2161 105.3626 0001425  77.1169 282.9982 15.08875680 65050,6917.771,95.435,540.622,538.651,0.0
53930.0,STARLINK-5010,PAYLOAD,2023-11-23 09:08:22,15.08847596,0.0001672,53.2169,102.6914,75.7472,284.3706,0.00032073,4.821e-05,0.0,0 STARLINK-5010,1 53930U 22119AW  23327.38081675  .00004821  00000-0  32073-3 0  9993,2 53930  53.2169 102.6914 0001672  75.7472 284.3706 15.08847596 65148,6917.857,95.437,540.879,538.566,0.0
53930.0,STARLINK-5010,PAYLOAD,2023-11-23 13:54:31,15.08844452,0.0001434,53.2167,101.7992,74.3571,285.7579,-0.00010446,-1.95e-05,0.0,0 STARLINK-5010,1 53930U 22119AW  23327.57953336 -.00001950  00000-0 -10446-3 0  9998,2 53930  53.2167 101.7992 0001434  74.3571 285.7579 15.08844452 65593,6917.867,95.437,540.724,538.74,0.0
53930.0,STARLINK-5010,PAYLOAD,2023-11-23 18:40:40,15.0885651,0.0001304,53.2152,100.9017,90.9356,269.1785,0.00010809,1.434e-05,0.0,0 STARLINK-5010,1 53930U 22119AW  23327.77824650  .00001434  00000-0  10809-3 0  9994,2 53930  53.2152 100.9017 0001304  90.9356 269.1785 15.08856510 65624,6917.83,95.437,540.597,538.793,0.0
53930.0,STARLINK-5010,PAYLOAD,2023-11-24 12:09:55,15.08836825,0.0002142,53.217,97.6292,117.1138,243.0073,0.00069557,0.00010798,0.0,0 STARLINK-5010,1 53930U 22119AW  23328.50689266  .00010798  00000-0  69557-3 0  9995,2 53930  53.2170  97.6292 0002142 117.1138 243.0073 15.08836825 65316,6917.89,95.438,541.237,538.273,0.0
53930.0,STARLINK-5010,PAYLOAD,2023-11-24 13:45:18,15.08836719,0.0002291,53.2174,97.3314,121.2333,238.8884,0.00071909,0.00011174,0.0,0 STARLINK-5010,1 53930U 22119AW  23328.57313269  .00011174  00000-0  71909-3 0  9992,2 53930  53.2174  97.3314 0002291 121.2333 238.8884 15.08836719 65741,6917.89,95.438,541.34,538.171,0.0
